{
 "generated_at": "2026-07-20T08:05:52Z",
 "sources": [
  {
   "name": "CelesTrak",
   "url": "https://celestrak.org/NORAD/elements/",
   "license": "frei verfügbar; Attribution. Ursprünglich USSPACECOM/Space-Track."
  },
  {
   "name": "GCAT (J. McDowell, planet4589.org)",
   "url": "https://planet4589.org/space/gcat/",
   "license": "CC-BY 4.0"
  }
 ],
 "satellites": [
  {
   "norad": 54234,
   "name": "NOAA 21 (JPSS-2)",
   "intl": "2022-150A",
   "group": "weather",
   "gcat": {
    "class": "C",
    "category": "MET",
    "owner": "GSFC/NOAA",
    "state": "US"
   },
   "omm": {
    "OBJECT_NAME": "NOAA 21 (JPSS-2)",
    "OBJECT_ID": "2022-150A",
    "EPOCH": "2026-07-19T19:25:54.668928",
    "MEAN_MOTION": 14.1954153,
    "ECCENTRICITY": 0.0002913,
    "INCLINATION": 98.7059,
    "RA_OF_ASC_NODE": 139.051,
    "ARG_OF_PERICENTER": 96.4097,
    "MEAN_ANOMALY": 263.7411,
    "EPHEMERIS_TYPE": 0,
    "CLASSIFICATION_TYPE": "U",
    "NORAD_CAT_ID": 54234,
    "ELEMENT_SET_NO": 999,
    "REV_AT_EPOCH": 19117,
    "BSTAR": 0.00002815,
    "MEAN_MOTION_DOT": 1.6e-7,
    "MEAN_MOTION_DDOT": 0
   }
  },
  {
   "norad": 43619,
   "name": "NOVASAR 1",
   "intl": "2018-071B",
   "group": "sar",
   "gcat": {
    "class": "B",
    "category": "IMG",
    "owner": "SSTLA",
    "state": "UK"
   },
   "omm": {
    "OBJECT_NAME": "NOVASAR 1",
    "OBJECT_ID": "2018-071B",
    "EPOCH": "2026-07-19T21:21:35.513568",
    "MEAN_MOTION": 14.96267093,
    "ECCENTRICITY": 0.000154,
    "INCLINATION": 97.5022,
    "RA_OF_ASC_NODE": 71.8621,
    "ARG_OF_PERICENTER": 63.4642,
    "MEAN_ANOMALY": 296.6738,
    "EPHEMERIS_TYPE": 0,
    "CLASSIFICATION_TYPE": "U",
    "NORAD_CAT_ID": 43619,
    "ELEMENT_SET_NO": 999,
    "REV_AT_EPOCH": 42782,
    "BSTAR": -0.000050963,
    "MEAN_MOTION_DOT": -0.00000629,
    "MEAN_MOTION_DDOT": 0
   }
  },
  {
   "norad": 35931,
   "name": "OCEANSAT-2",
   "intl": "2009-051A",
   "group": "resource",
   "gcat": {
    "class": null,
    "category": null,
    "owner": null,
    "state": null
   },
   "omm": {
    "OBJECT_NAME": "OCEANSAT-2",
    "OBJECT_ID": "2009-051A",
    "EPOCH": "2026-07-19T20:50:56.326272",
    "MEAN_MOTION": 13.99656128,
    "ECCENTRICITY": 0.0017635,
    "INCLINATION": 98.2324,
    "RA_OF_ASC_NODE": 184.4571,
    "ARG_OF_PERICENTER": 140.1068,
    "MEAN_ANOMALY": 220.1398,
    "EPHEMERIS_TYPE": 0,
    "CLASSIFICATION_TYPE": "U",
    "NORAD_CAT_ID": 35931,
    "ELEMENT_SET_NO": 999,
    "REV_AT_EPOCH": 88390,
    "BSTAR": 0.000055281,
    "MEAN_MOTION_DOT": 4.3e-7,
    "MEAN_MOTION_DDOT": 0
   }
  },
  {
   "norad": 59065,
   "name": "PARS 1",
   "intl": "2024-039Q",
   "group": "resource",
   "gcat": {
    "class": "C",
    "category": "IMG",
    "owner": "IRSA",
    "state": "IR"
   },
   "omm": {
    "OBJECT_NAME": "PARS 1",
    "OBJECT_ID": "2024-039Q",
    "EPOCH": "2026-07-19T20:52:49.754784",
    "MEAN_MOTION": 15.46351156,
    "ECCENTRICITY": 0.0009191,
    "INCLINATION": 97.4846,
    "RA_OF_ASC_NODE": 182.8391,
    "ARG_OF_PERICENTER": 11.2154,
    "MEAN_ANOMALY": 348.9298,
    "EPHEMERIS_TYPE": 0,
    "CLASSIFICATION_TYPE": "U",
    "NORAD_CAT_ID": 59065,
    "ELEMENT_SET_NO": 999,
    "REV_AT_EPOCH": 13369,
    "BSTAR": 0.00013515,
    "MEAN_MOTION_DOT": 0.00006586,
    "MEAN_MOTION_DDOT": 0
   }
  },
  {
   "norad": 41787,
   "name": "PATHFINDER 1",
   "intl": "2016-059E",
   "group": "resource",
   "gcat": {
    "class": null,
    "category": null,
    "owner": null,
    "state": null
   },
   "omm": {
    "OBJECT_NAME": "PATHFINDER 1",
    "OBJECT_ID": "2016-059E",
    "EPOCH": "2026-07-19T17:23:31.623648",
    "MEAN_MOTION": 14.67695974,
    "ECCENTRICITY": 0.0029946,
    "INCLINATION": 97.8179,
    "RA_OF_ASC_NODE": 198.5344,
    "ARG_OF_PERICENTER": 101.9832,
    "MEAN_ANOMALY": 258.4732,
    "EPHEMERIS_TYPE": 0,
    "CLASSIFICATION_TYPE": "U",
    "NORAD_CAT_ID": 41787,
    "ELEMENT_SET_NO": 999,
    "REV_AT_EPOCH": 52448,
    "BSTAR": 0.000051891,
    "MEAN_MOTION_DOT": 0.00000251,
    "MEAN_MOTION_DDOT": 0
   }
  },
  {
   "norad": 43215,
   "name": "PAZ",
   "intl": "2018-020A",
   "group": "sar",
   "gcat": {
    "class": "D",
    "category": "IMG-R",
    "owner": "HISD",
    "state": "E"
   },
   "omm": {
    "OBJECT_NAME": "PAZ",
    "OBJECT_ID": "2018-020A",
    "EPOCH": "2026-07-19T20:14:42.847872",
    "MEAN_MOTION": 15.19152079,
    "ECCENTRICITY": 0.0001671,
    "INCLINATION": 97.4458,
    "RA_OF_ASC_NODE": 207.7658,
    "ARG_OF_PERICENTER": 88.3935,
    "MEAN_ANOMALY": 271.749,
    "EPHEMERIS_TYPE": 0,
    "CLASSIFICATION_TYPE": "U",
    "NORAD_CAT_ID": 43215,
    "ELEMENT_SET_NO": 999,
    "REV_AT_EPOCH": 46596,
    "BSTAR": 0.000042949,
    "MEAN_MOTION_DOT": 0.00000835,
    "MEAN_MOTION_DDOT": 0
   }
  },
  {
   "norad": 38012,
   "name": "PLEIADES 1A",
   "intl": "2011-076F",
   "group": "resource",
   "gcat": {
    "class": null,
    "category": "IMG",
    "owner": "CNES/DGA",
    "state": "F"
   },
   "omm": {
    "OBJECT_NAME": "PLEIADES 1A",
    "OBJECT_ID": "2011-076F",
    "EPOCH": "2026-07-19T20:35:24.687168",
    "MEAN_MOTION": 14.58547469,
    "ECCENTRICITY": 0.000163,
    "INCLINATION": 98.1963,
    "RA_OF_ASC_NODE": 275.52,
    "ARG_OF_PERICENTER": 77.2799,
    "MEAN_ANOMALY": 31.9928,
    "EPHEMERIS_TYPE": 0,
    "CLASSIFICATION_TYPE": "U",
    "NORAD_CAT_ID": 38012,
    "ELEMENT_SET_NO": 999,
    "REV_AT_EPOCH": 77675,
    "BSTAR": -0.0000098409,
    "MEAN_MOTION_DOT": -9.1e-7,
    "MEAN_MOTION_DDOT": 0
   }
  },
  {
   "norad": 39019,
   "name": "PLEIADES 1B",
   "intl": "2012-068A",
   "group": "resource",
   "gcat": {
    "class": null,
    "category": "IMG",
    "owner": "CNES",
    "state": "F"
   },
   "omm": {
    "OBJECT_NAME": "PLEIADES 1B",
    "OBJECT_ID": "2012-068A",
    "EPOCH": "2026-07-19T20:54:26.033760",
    "MEAN_MOTION": 14.58535618,
    "ECCENTRICITY": 0.0001487,
    "INCLINATION": 98.1933,
    "RA_OF_ASC_NODE": 275.4706,
    "ARG_OF_PERICENTER": 77.6822,
    "MEAN_ANOMALY": 282.4544,
    "EPHEMERIS_TYPE": 0,
    "CLASSIFICATION_TYPE": "U",
    "NORAD_CAT_ID": 39019,
    "ELEMENT_SET_NO": 999,
    "REV_AT_EPOCH": 72561,
    "BSTAR": 0.000021915,
    "MEAN_MOTION_DOT": 5.6e-7,
    "MEAN_MOTION_DDOT": 0
   }
  },
  {
   "norad": 48268,
   "name": "PLEIADES NEO 3",
   "intl": "2021-034A",
   "group": "resource",
   "gcat": {
    "class": null,
    "category": "IMG",
    "owner": "ADSTI",
    "state": "F"
   },
   "omm": {
    "OBJECT_NAME": "PLEIADES NEO 3",
    "OBJECT_ID": "2021-034A",
    "EPOCH": "2026-07-19T07:56:44.636352",
    "MEAN_MOTION": 14.81672056,
    "ECCENTRICITY": 0.00013939,
    "INCLINATION": 97.8937,
    "RA_OF_ASC_NODE": 274.6355,
    "ARG_OF_PERICENTER": 96.6622,
    "MEAN_ANOMALY": 263.475,
    "EPHEMERIS_TYPE": 0,
    "CLASSIFICATION_TYPE": "U",
    "NORAD_CAT_ID": 48268,
    "ELEMENT_SET_NO": 999,
    "REV_AT_EPOCH": 28241,
    "BSTAR": 0.000026537661,
    "MEAN_MOTION_DOT": 0.00000157,
    "MEAN_MOTION_DDOT": 0
   }
  },
  {
   "norad": 49070,
   "name": "PLEIADES NEO 4",
   "intl": "2021-073E",
   "group": "resource",
   "gcat": {
    "class": null,
    "category": "IMG",
    "owner": "ADSTI",
    "state": "F"
   },
   "omm": {
    "OBJECT_NAME": "PLEIADES NEO 4",
    "OBJECT_ID": "2021-073E",
    "EPOCH": "2026-07-20T00:57:49.044672",
    "MEAN_MOTION": 14.81672429,
    "ECCENTRICITY": 0.0001349,
    "INCLINATION": 97.8942,
    "RA_OF_ASC_NODE": 275.3305,
    "ARG_OF_PERICENTER": 102.2167,
    "MEAN_ANOMALY": 257.9196,
    "EPHEMERIS_TYPE": 0,
    "CLASSIFICATION_TYPE": "U",
    "NORAD_CAT_ID": 49070,
    "ELEMENT_SET_NO": 999,
    "REV_AT_EPOCH": 26623,
    "BSTAR": 0.000031064,
    "MEAN_MOTION_DOT": 0.00000192,
    "MEAN_MOTION_DDOT": 0
   }
  }
 ]
}
